STARLINK-3359
1 51148U 22005AW  26090.61040435  .00033480  00000+0  20412-2 0  9996
2 51148  53.2168 210.7799 0000119 236.7155 123.3826 15.10081227231908
